<?xml version="1.0" encoding="utf-8" ?>
<kml xmlns="http://www.opengis.net/kml/2.2">
<Document id="root_doc">
<Schema name="chennaidss_gis_drainage_network_chennai_basin_buckingham_canal_withlabel" id="chennaidss_gis_drainage_network_chennai_basin_buckingham_canal_withlabel">
	<SimpleField name="id" type="int"></SimpleField>
	<SimpleField name="subbasin" type="string"></SimpleField>
	<SimpleField name="modelling" type="string"></SimpleField>
	<SimpleField name="length_km" type="float"></SimpleField>
	<SimpleField name="slno" type="int"></SimpleField>
	<SimpleField name="type" type="string"></SimpleField>
</Schema>
<Folder><name>chennaidss_gis_drainage_network_chennai_basin_buckingham_canal_withlabel</name>
  <Placemark>
	<name>North Buckibgham Canal (North of R.Kosasthalayar)</name>
	<Style><LineStyle><color>ff0000ff</color></LineStyle><PolyStyle><fill>0</fill></PolyStyle></Style>
	<ExtendedData><SchemaData schemaUrl="#chennaidss_gis_drainage_network_chennai_basin_buckingham_canal_withlabel">
		<SimpleData name="id">1</SimpleData>
		<SimpleData name="subbasin">Kosasthalayar</SimpleData>
		<SimpleData name="modelling">Hydraulic Channel Routing</SimpleData>
		<SimpleData name="length_km">8.839</SimpleData>
		<SimpleData name="slno">1</SimpleData>
		<SimpleData name="type">Macro Drain</SimpleData>
	</SchemaData></ExtendedData>
      <MultiGeometry><LineString><coordinates>80.3173180767542,13.2325640143189 80.3176087474955,13.2330065476863 80.3175970880001,13.2352045540002 80.3174735410924,13.2422538609375 80.3175961988996,13.2455242880764 80.3180599003401,13.2469536359615 80.3188602279137,13.2487765033586 80.3206612962084,13.2514866182449 80.3216596223367,13.2532585796545 80.3228051376741,13.2558294694714 80.3237352032164,13.2571796046896 80.3239947364691,13.2581764886 80.3247616802134,13.25926916449 80.3261153646662,13.2621771106068 80.3266669056629,13.2640305146687 80.3267919993899,13.2660576980984 80.3267931397412,13.2669095660672 80.3269204910002,13.26778198 80.3271995942281,13.268897505567 80.3274877941745,13.2701818719133 80.3272406126805,13.2713279811658 80.3263272791259,13.2739194041463 80.3258979209825,13.275277123532 80.325739164696,13.276135514591 80.3258376071687,13.2767615509849 80.325970362,13.2772019870001 80.326410633388,13.2781995290764 80.3270674586826,13.2800183503153 80.32776475711,13.2812082408771 80.3281627841172,13.2816565553105 80.328852126504,13.2824484922761 80.3291730991643,13.2828838781859 80.3294730380985,13.283624807625 80.3299662509894,13.2865571039088 80.330122893521,13.2883383531162 80.3302659049054,13.2908638550316 80.3301576415649,13.2939234542604 80.3300541912367,13.296888875814 80.3299519093651,13.2992346136335 80.3299422547664,13.3007977447778 80.3298068359329,13.301400442327 80.32926466,13.3027697680002 80.3282500909804,13.3054166670175 80.327064213057,13.3083912163834</coordinates></LineString></MultiGeometry>
  </Placemark>
  <Placemark>
	<name>South Buckingham Canal</name>
	<Style><LineStyle><color>ff0000ff</color></LineStyle><PolyStyle><fill>0</fill></PolyStyle></Style>
	<ExtendedData><SchemaData schemaUrl="#chennaidss_gis_drainage_network_chennai_basin_buckingham_canal_withlabel">
		<SimpleData name="id">2</SimpleData>
		<SimpleData name="subbasin">Kovalam</SimpleData>
		<SimpleData name="modelling">Hydraulic Channel Routing</SimpleData>
		<SimpleData name="length_km">23.271</SimpleData>
		<SimpleData name="slno">2</SimpleData>
		<SimpleData name="type">Macro Drain</SimpleData>
	</SchemaData></ExtendedData>
      <MultiGeometry><LineString><coordinates>80.2352431588761,12.7807054337275 80.2346617370001,12.779411008 80.2340018985507,12.7760917702304 80.233208299375,12.7725577629527 80.2328626566013,12.771131071015 80.2327911705119,12.7707928138572 80.2322119308456,12.7677471696709 80.2320930218269,12.7671219378222 80.232026433,12.7667718080001 80.2317061590002,12.7656217110001 80.2313971448278,12.7642000767768 80.2310281502992,12.7615631306132 80.2309110184331,12.7608598153668 80.230795911,12.7604776310002 80.2308433870001,12.759974768 80.2307195413814,12.7592773433237 80.2306710280001,12.7590041440001 80.2306418636317,12.7586160329398 80.2305949805722,12.7582772205152 80.2304801960001,12.7576821660001 80.2303208651183,12.7559298758581 80.2301902240726,12.7546035694884 80.2298431476473,12.7512660686756 80.2293711112791,12.7470256572163 80.2293362081377,12.7467070436445 80.2288567223249,12.7449157933078 80.2281016704385,12.7430305860682 80.2273995952447,12.7415600619723 80.226966515,12.7408435099999 80.2261758280002,12.7388261620001 80.2251103613781,12.7369301908333 80.2240608095792,12.7355318799165 80.22342105,12.7344716200001 80.2228474538436,12.7332598625872 80.2223144263063,12.7321988534914 80.2216303610001,12.730801129 80.222101437,12.7304925420002 80.2207520693509,12.7277978834738 80.2193871425417,12.7250480952344 80.2177585192826,12.7215960752761 80.2158353281333,12.7174479532763 80.215397294797,12.7165965342339 80.2127450360166,12.7114690815787 80.2112001842904,12.708333333365 80.2107013414257,12.7072294090285 80.2100697602259,12.7058853018275 80.2096166493971,12.7049627642175 80.2084064296511,12.7024987120022 80.2070610258996,12.6996977783492 80.2053602231613,12.6960927540123 80.204417857341,12.6940962603277 80.2036526413074,12.6924812787313 80.2030045876077,12.6911268709362 80.2027849951389,12.6905749841091 80.2025390482931,12.6897745188278 80.2022247940001,12.6888040430001 80.2018872819496,12.6871894492935 80.2015696122769,12.6856360663947 80.2011164623656,12.6832813145557 80.2006259645548,12.6807524993753 80.2001778960001,12.6788581870001 80.2001292816317,12.6787296193396 80.2000852170001,12.6786130840002 80.2000845850002,12.6783517820001 80.2000192114564,12.6780814257935 80.1997110115972,12.6768068398797 80.1995929322892,12.676227778318 80.1994887297387,12.675616683501 80.1994037924145,12.6751185676089 80.1990218714601,12.6732650264454 80.1987271956833,12.6717326720817 80.1985153322949,12.6706223063524 80.1982562344603,12.6693547463773 80.1980370254873,12.6683658791954 80.1976998729757,12.6668449471808 80.1972934664859,12.6650023731185 80.1971525775916,12.6643188973438 80.1970499363409,12.6638209653347 80.1967586392247,12.6624078190617 80.1964808389054,12.6610601360638 80.196239629948,12.6598899574474 80.1960803495506,12.6590690146519 80.196070285,12.658919867 80.196138785,12.6585641070002 80.196078807,12.658425874 80.1959069990001,12.658079743 80.1955470635038,12.6564315895445 80.1950341822022,12.6540830612242 80.1942548734854,12.6505144658968 80.1936293769097,12.6476501408285 80.193130116253,12.6455216322112 80.192946999554,12.6447637405786 80.192428210495,12.6425123225285 80.1919653360503,12.6403665966902 80.1914229183644,12.6379456959075 80.191032342108,12.6363305064489 80.1902269846564,12.6335285599342 80.189582944045,12.6315073155454 80.1888606973967,12.6292275468001 80.1876065561427,12.6252096532494 80.1871757135855,12.6238431859434 80.1868304737076,12.6227482075763 80.1866090917279,12.6220003095602 80.1864040748003,12.6212980855805 80.1862605140001,12.6208063590001 80.1861795460001,12.6196568450001 80.1861793480001,12.6188903140001 80.1863956730001,12.6179752320001 80.1865737530001,12.616452909 80.1868068580002,12.6150908610001 80.1866599307965,12.6142146875524 80.1861248789269,12.6131680962641 80.1858460914433,12.612168587956 80.1857225150001,12.6118682730001 80.1857372740001,12.611444827 80.1860670790001,12.611001491 80.1862945349069,12.6102784814168 80.1863362056327,12.6099167615795 80.1861406812235,12.6094127993851 80.1859355990001,12.6091305600002 80.1840881412652,12.6074879085275 80.1828966842687,12.6063516619456 80.1822144720002,12.6056398280002 80.1811842960002,12.6038565130001 80.179843817674,12.6013750191896 80.1795111680001,12.6007517330001 80.1791149810001,12.5997366950001 80.1787291599798,12.5987373258753 80.177918102682,12.5960970040357 80.1774133379589,12.5945225902975 80.1765895189272,12.5919426666223 80.1764412060175,12.5914795989168 80.1762196776974,12.5908427338264 80.1759791630002,12.5903239530001 80.1755863806109,12.588797426796 80.174961265,12.5869147010001 80.1733855801691,12.5847122627962 80.1724301657208,12.5834300564264</coordinates></LineString></MultiGeometry>
  </Placemark>
  <Placemark>
	<name>Central Buckingham Canal</name>
	<Style><LineStyle><color>ff0000ff</color></LineStyle><PolyStyle><fill>0</fill></PolyStyle></Style>
	<ExtendedData><SchemaData schemaUrl="#chennaidss_gis_drainage_network_chennai_basin_buckingham_canal_withlabel">
		<SimpleData name="id">3</SimpleData>
		<SimpleData name="subbasin">Cooum/Adyar</SimpleData>
		<SimpleData name="modelling">Hydraulic Channel Routing</SimpleData>
		<SimpleData name="length_km">8.138</SimpleData>
		<SimpleData name="slno">3</SimpleData>
		<SimpleData name="type">Macro Drain</SimpleData>
	</SchemaData></ExtendedData>
      <MultiGeometry><LineString><coordinates>80.2491985085368,13.0184678816266 80.2496952937365,13.0189090458035 80.2509337657487,13.0195801637452 80.2516067335886,13.0203590556581 80.2523220369936,13.0214604265421 80.2526441960141,13.0218997883519 80.2534302125527,13.0226533400187 80.2547646193459,13.0230527971564 80.2560689916774,13.0236689758568 80.2574436533206,13.0243869696843 80.2585535163282,13.024723955654 80.2590795124023,13.0253221744931 80.2596532781587,13.0258796348991 80.2601023404239,13.0267913683196 80.260958694604,13.0287532246894 80.2613487340876,13.0301643956147 80.2618648573443,13.0310731028935 80.2627143123617,13.0319096547097 80.2636943648107,13.0327445994616 80.2648146939499,13.0336953974624 80.2656081321171,13.0338817083887 80.2662723611257,13.0342348156188 80.2669868803484,13.0348891138774 80.2673434771503,13.0354420482272 80.2679727975811,13.0358610498728 80.2687108599559,13.0362811261905 80.269115873776,13.0372300635296 80.2694847096847,13.0382077240778 80.2693250751294,13.039096139602 80.2696246514675,13.0398241603118 80.2700979537902,13.0405147763243 80.2705652207524,13.0411898267469 80.2711441196708,13.0414302176742 80.2716898872283,13.0418977641268 80.2724408979025,13.042068936816 80.2736429910638,13.0418358405262 80.2743208034488,13.0417940002555 80.2753484004968,13.0415262225231 80.2759728567808,13.0420392512911 80.276138405245,13.0431917899553 80.2767299958399,13.0447516689809 80.2773651015436,13.0468717355054 80.2781382622629,13.0495413219776 80.2797286142278,13.0519857903199 80.2802792097576,13.0530238392794 80.2803641004501,13.0533833967801 80.2800823965313,13.0527338924992 80.2792517217664,13.0513815005286</coordinates></LineString><LineString><coordinates>80.2805070664589,13.053988932165 80.2804865650544,13.0536657534447 80.2803641004501,13.0533833967801 80.2805070664589,13.053988932165 80.2805437253456,13.0541442011773 80.2805484671649,13.0546415604614 80.2805070664589,13.053988932165</coordinates></LineString><LineString><coordinates>80.2825160061306,13.0689636960365 80.2824999074382,13.0681642426759 80.2824493083207,13.0676220251532 80.2823881582345,13.0671206897956 80.2823266242376,13.0667523156565 80.2820461173645,13.0663424219465 80.2812559380463,13.0653992622506 80.2807380249245,13.0641091104465 80.2805951930082,13.0629938753724 80.280196549951,13.0601494182373 80.2804934100778,13.0576357199058 80.2804834477377,13.0577592786957</coordinates></LineString><LineString><coordinates>80.2804957626598,13.0576065417786 80.2804934100778,13.0576357199058 80.2804960058904,13.0576137392752 80.2804957626598,13.0576065417786 80.2804479576922,13.0561919312053 80.2805525700718,13.055071908524 80.2805681726471,13.0567084653421 80.2804957626598,13.0576065417786</coordinates></LineString><LineString><coordinates>80.2805525700718,13.055071908524 80.28056638455,13.0549240041177 80.2805484671649,13.0546415604614 80.2805525700718,13.055071908524</coordinates></LineString></MultiGeometry>
  </Placemark>
  <Placemark>
	<name>North Buckingham Canal (South of R.Kosasthalayar)</name>
	<Style><LineStyle><color>ff0000ff</color></LineStyle><PolyStyle><fill>0</fill></PolyStyle></Style>
	<ExtendedData><SchemaData schemaUrl="#chennaidss_gis_drainage_network_chennai_basin_buckingham_canal_withlabel">
		<SimpleData name="id">4</SimpleData>
		<SimpleData name="subbasin">Kosasthalayar/Cooum</SimpleData>
		<SimpleData name="modelling">Hydraulic Channel Routing</SimpleData>
		<SimpleData name="length_km">17.16</SimpleData>
		<SimpleData name="slno">4</SimpleData>
		<SimpleData name="type">Macro Drain</SimpleData>
	</SchemaData></ExtendedData>
      <MultiGeometry><LineString><coordinates>80.2811729918667,13.1472459944419 80.2784260307305,13.1415069131886 80.2778456778511,13.1401143027157 80.272226551098,13.120379263671 80.270000795673,13.1107997368153 80.2722672090756,13.1065513756835 80.2731115811937,13.1032808553944 80.2737877807234,13.1004189699425 80.2740437182255,13.0985377703399 80.2740561805749,13.0942830282471 80.2738139117571,13.0915003761241 80.2739925929896,13.087491567598 80.2749266699153,13.0820529820465 80.2750151585389,13.0803349527969 80.2749764636906,13.0792945738459</coordinates></LineString><LineString><coordinates>80.2813544621421,13.1470969244752 80.2834019838545,13.151770507917 80.2845666489331,13.1540464256617 80.286781897,13.1588983820001 80.2884648118056,13.1627528603524 80.2888824817527,13.1633957075772 80.2898247602338,13.1713331512037 80.2900637598672,13.1738785226431 80.2907993281495,13.1750761120737 80.2946228574693,13.1812266585089 80.2964602880001,13.184020764 80.2986476565228,13.1853818664417 80.2995789204095,13.1864141660678 80.3016980807137,13.189502580296 80.3027322669677,13.1912199104876 80.3045570438535,13.1951855643572 80.3067414862463,13.2003763162194 80.3084792004331,13.2024706813376 80.3097373156832,13.2041580230067 80.3119552901213,13.2085910761329 80.3136251262463,13.2122122648561 80.3149734122618,13.2147154155458 80.316959810356,13.217606370318 80.3177054285639,13.2189340055374 80.3183144609956,13.220204426833 80.3183316031364,13.221962463855</coordinates></LineString></MultiGeometry>
  </Placemark>
  <Placemark>
	<name>South Buckingham Canal upto Kovalam Creek</name>
	<Style><LineStyle><color>ff0000ff</color></LineStyle><PolyStyle><fill>0</fill></PolyStyle></Style>
	<ExtendedData><SchemaData schemaUrl="#chennaidss_gis_drainage_network_chennai_basin_buckingham_canal_withlabel">
		<SimpleData name="id">5</SimpleData>
		<SimpleData name="subbasin">Adyar/Kovalam</SimpleData>
		<SimpleData name="modelling">Hydraulic Channel Routing</SimpleData>
		<SimpleData name="length_km">25.759</SimpleData>
		<SimpleData name="slno">5</SimpleData>
		<SimpleData name="type">Macro Drain</SimpleData>
	</SchemaData></ExtendedData>
      <MultiGeometry><LineString><coordinates>80.2428830064902,12.9220041927708 80.2430008354028,12.9226389432607 80.242981664,12.9225918470001 80.2419633281335,12.9175089278217 80.2419453060228,12.9167007646188 80.2414780390292,12.9152818210002 80.2396841162158,12.9059058475223 80.2384827125147,12.8999557977391 80.2382378146115,12.8984118913699 80.238235774341,12.8972297153892 80.2387233686143,12.8951413425188 80.2397894644744,12.8874962512672 80.2405071020002,12.882815895 80.2405297452834,12.8812256507823 80.2405566690001,12.8793347110002 80.2410603192766,12.875724198196 80.241359439425,12.8742404317406 80.2414278601766,12.873192120347 80.2413831000002,12.872389374 80.239737684,12.869845341 80.238441151626,12.867458053227 80.23822528793,12.866712176998 80.2375139387794,12.8636479481829 80.2370493043088,12.8611769498638 80.236709559,12.8593701050002 80.2359858142965,12.8570465292354 80.235609502,12.8559257980002 80.2351694194857,12.854777390459 80.2349530402057,12.8539745695829 80.2348627861079,12.8534194820908 80.2349551432019,12.8491662283774 80.2350002397441,12.847529323526 80.235149733661,12.8458808266261 80.2352375270001,12.8421937160001 80.2361336984527,12.839726443575 80.2371826839103,12.8368463793977 80.2375841038829,12.8357421250641 80.2376217200002,12.8349374420002 80.237793326086,12.8339212761599 80.2380388490001,12.8314223960002 80.238068775,12.8302104119999 80.2380140938221,12.8297689925399 80.2379410380001,12.8291792400002 80.2376891606408,12.8279847941991 80.2374457260001,12.8264710530002 80.2380386419999,12.8228739420001 80.2381060326823,12.8208155225761 80.2381218970001,12.820157895 80.238379842,12.8188109920001 80.2388891326154,12.8174172561447 80.2392040044195,12.816339180668 80.2396355426496,12.8152853385453 80.2401237139341,12.8137415083804 80.2407328012856,12.8108307542394 80.2411827759682,12.8078776197986 80.24102041534,12.8047526736738</coordinates></LineString><LineString><coordinates>80.2432830393608,12.9233322003938 80.2430008354028,12.9226389432607 80.2431883709301,12.9236492011886 80.2449610025043,12.9314770321472 80.2470845246084,12.9421248546828 80.2486359032631,12.9519253154903 80.2527407874122,12.9729385788893 80.2538701641332,12.9797778600946 80.2535023077467,12.9816228516671 80.2519180527443,12.9883215518049 80.2518576230958,12.9885537505906 80.2501593478761,12.9950791086867 80.2501593478761,12.9950791086867</coordinates></LineString><LineString><coordinates>80.2489201361862,13.0189955801961 80.2485246029629,13.0181207751039 80.2483552066617,13.0145591340581 80.2481145683103,13.0127936718407 80.2480877905371,13.0122221337432 80.2481513877486,13.0117911789552 80.2480782775588,13.0080642737626 80.2478593627009,13.004856085 80.2478363423536,13.0041273245878 80.2483204224421,13.0021553646172 80.2494443096102,12.9976594361175 80.2501593478761,12.9950791086867 80.2507839775798,12.9928249842552 80.2518071105973,12.9888625744489 80.2518576230958,12.9885537505906 80.2521481788263,12.9867773300499 80.2531273588864,12.9828773361851</coordinates></LineString></MultiGeometry>
  </Placemark>
</Folder>
</Document></kml>
