<?xml version="1.0" encoding="utf-8" ?>
<kml xmlns="http://www.opengis.net/kml/2.2">
<Document id="root_doc">
<Schema name="chennaidss_gis_drainage_network_chennai_basin_krishna_water_canal_withlabel" id="chennaidss_gis_drainage_network_chennai_basin_krishna_water_canal_withlabel">
	<SimpleField name="id" type="int"></SimpleField>
	<SimpleField name="subbasin" type="string"></SimpleField>
	<SimpleField name="modelling" type="string"></SimpleField>
	<SimpleField name="length_km" type="int"></SimpleField>
	<SimpleField name="slno" type="int"></SimpleField>
	<SimpleField name="type" type="string"></SimpleField>
</Schema>
<Folder><name>chennaidss_gis_drainage_network_chennai_basin_krishna_water_canal_withlabel</name>
  <Placemark>
	<name>TG Canal</name>
	<Style><LineStyle><color>ff0000ff</color></LineStyle><PolyStyle><fill>0</fill></PolyStyle></Style>
	<ExtendedData><SchemaData schemaUrl="#chennaidss_gis_drainage_network_chennai_basin_krishna_water_canal_withlabel">
		<SimpleData name="id">1</SimpleData>
		<SimpleData name="subbasin">Kosasthalayar</SimpleData>
		<SimpleData name="modelling">Hydraulic Channel Routing</SimpleData>
		<SimpleData name="length_km">26</SimpleData>
		<SimpleData name="slno">1</SimpleData>
		<SimpleData name="type">Supply / Surplus Channel</SimpleData>
	</SchemaData></ExtendedData>
      <MultiGeometry><LineString><coordinates>79.8674919644788,13.2118778597953 79.8659338733531,13.2135800984783 79.8619473103659,13.2173576857886 79.8613324329073,13.2179689456813 79.8612276847574,13.2184280792199 79.8613522904157,13.2192185715244 79.8617066534625,13.221439155323 79.8615459974147,13.2224940834702 79.8604521334372,13.2260152009412 79.8601218737454,13.227679776453 79.8603347996442,13.2291816056815 79.8608316945159,13.2318839683652 79.8611412027688,13.2331097499595 79.8614100175777,13.2336279976376 79.8619313897259,13.2350091195319 79.8625625863381,13.2379993280732 79.8632854561384,13.2386129524639 79.8643442612009,13.2395009566631 79.8661103003795,13.2412179423156 79.8686799639876,13.2435345240475 79.8709209926845,13.2455911043614 79.873461458771,13.2479003336652 79.8750072666764,13.2481154095651 79.8784007988252,13.2482524289242 79.8829672462101,13.248394540381 79.8865808140311,13.2485108707396 79.8908837030376,13.2485798780588 79.8953492042893,13.248355083291 79.8983336425089,13.2481812707244 79.8999302530427,13.248518499058 79.9025748099785,13.2489392212741 79.9080941230639,13.2507725948615 79.9118348062538,13.2519950415742 79.9142004116356,13.252514996239 79.9144015807935,13.2526128005602 79.9146717169344,13.2528635017992 79.9175461062929,13.2560373052246 79.919661758695,13.2583873976077 79.9204718633919,13.2592166843888 79.9241340369307,13.2616666445089 79.9246374887237,13.2622145522189 79.9251396804981,13.2630497083536 79.9253419571873,13.2637327908196 79.9254805251008,13.2638985463501 79.9267053356025,13.2654620630092 79.9267921450886,13.2657281391173 79.927739609503,13.267010410405 79.9287146785505,13.2686877701206 79.9288529997411,13.2689109740391 79.9298057431279,13.2706672316468</coordinates></LineString><LineString><coordinates>79.929775191697,13.270635587913 79.9326054918789,13.2759379809358 79.9326154407755,13.2769932744096 79.9319680689976,13.2785449172753 79.9311319237496,13.2799816841562 79.9246104856772,13.2830629309965 79.922496552309,13.2837099572502 79.9136448030999,13.2836580751811 79.9103686754485,13.283729633198 79.9101057248566,13.2839281482878 79.9035615186873,13.2887627132172 79.9007412678957,13.2910464073327 79.899745030814,13.2956480816244 79.8990591395763,13.2992243722015 79.8990935498895,13.3012779599417 79.8992074721629,13.3082943668067 79.8993005712485,13.3102483876824 79.8998275313752,13.3160830019944 79.9021352325974,13.3242069180527 79.9030471933594,13.3254086991522 79.9032065968488,13.325580507794 79.9045940240602,13.3272583018647 79.9052128157568,13.3280428768907 79.9072054506164,13.3303902821087 79.9107374756537,13.3340597300112 79.9131816087258,13.3357720096941 79.9134066259689,13.3358695622121 79.9156121793217,13.3361227723678 79.9156535601427,13.3361252490128 79.9165098657318,13.336192725947 79.9186766811552,13.3363790522722 79.9192725397959,13.3365264748815 79.9200639014216,13.3370725817825 79.9203056073414,13.337643943686 79.9203402828085,13.3382972143199 79.920206562732,13.3398512615238 79.9199626989191,13.3439943327034 79.9179236086317,13.348336717947 79.9163968244029,13.3515406089089 79.9163579750427,13.3518256084998 79.9175287925405,13.3568256144089 79.9179539308277,13.3584004422222 79.9182247344129,13.3587695549927 79.9185811147203,13.3589090605954 79.9220250988506,13.3597884418123</coordinates></LineString></MultiGeometry>
  </Placemark>
</Folder>
</Document></kml>
